{
    "links": {
        "self": "http://www.neowsapp.com/rest/v1/neo/3841209?api_key=iIulBulltgU6a56xZRHN4H3l9WmuAYTsLGpBGhQ2"
    },
    "id": "3841209",
    "neo_reference_id": "3841209",
    "name": "(2019 GW20)",
    "designation": "2019 GW20",
    "nasa_jpl_url": "http://ssd.jpl.nasa.gov/sbdb.cgi?sstr=3841209",
    "absolute_magnitude_h": 27.5,
    "estimated_diameter": {
        "kilometers": {
            "estimated_diameter_min": 0.008405334,
            "estimated_diameter_max": 0.0187948982
        },
        "meters": {
            "estimated_diameter_min": 8.4053340207,
            "estimated_diameter_max": 18.7948982439
        },
        "miles": {
            "estimated_diameter_min": 0.0052228308,
            "estimated_diameter_max": 0.0116786047
        },
        "feet": {
            "estimated_diameter_min": 27.5765560686,
            "estimated_diameter_max": 61.6630539546
        }
    },
    "is_potentially_hazardous_asteroid": false,
    "close_approach_data": [
        {
            "close_approach_date": "1941-12-03",
            "close_approach_date_full": "1941-Dec-03 19:33",
            "epoch_date_close_approach": -886048020000,
            "relative_velocity": {
                "kilometers_per_second": "3.9611433674",
                "kilometers_per_hour": "14260.1161225668",
                "miles_per_hour": "8860.6815984916"
            },
            "miss_distance": {
                "astronomical": "1.420289029",
                "lunar": "552.492432281",
                "kilometers": "212472213.52276823",
                "miles": "132024111.443652374"
            },
            "orbiting_body": "Juptr"
        },
        {
            "close_approach_date": "2019-04-16",
            "close_approach_date_full": "2019-Apr-16 04:59",
            "epoch_date_close_approach": 1555390740000,
            "relative_velocity": {
                "kilometers_per_second": "13.9638638069",
                "kilometers_per_hour": "50269.9097050099",
                "miles_per_hour": "31235.7669497602"
            },
            "miss_distance": {
                "astronomical": "0.0092762546",
                "lunar": "3.6084630394",
                "kilometers": "1387707.929737702",
                "miles": "862281.7230042076"
            },
            "orbiting_body": "Moon"
        },
        {
            "close_approach_date": "2019-04-16",
            "close_approach_date_full": "2019-Apr-16 10:27",
            "epoch_date_close_approach": 1555410420000,
            "relative_velocity": {
                "kilometers_per_second": "13.5525733248",
                "kilometers_per_hour": "48789.2639693912",
                "miles_per_hour": "30315.7512703142"
            },
            "miss_distance": {
                "astronomical": "0.0087150859",
                "lunar": "3.3901684151",
                "kilometers": "1303758.287507033",
                "miles": "810117.8341937354"
            },
            "orbiting_body": "Earth"
        }
    ],
    "orbital_data": {
        "orbit_id": "1",
        "orbit_determination_date": "2019-04-14 21:53:26",
        "first_observation_date": "2019-04-13",
        "last_observation_date": "2019-04-14",
        "data_arc_in_days": 1,
        "observations_used": 22,
        "orbit_uncertainty": "7",
        "minimum_orbit_intersection": ".00650815",
        "jupiter_tisserand_invariant": "3.334",
        "epoch_osculation": "2459000.5",
        "eccentricity": ".6155015442524668",
        "semi_major_axis": "2.268600764513224",
        "inclination": ".9672114738914803",
        "ascending_node_longitude": "49.22864521822145",
        "orbital_period": "1248.060211614417",
        "perihelion_distance": ".8722734906630079",
        "perihelion_argument": "206.3109977531657",
        "aphelion_distance": "3.664928038363441",
        "perihelion_time": "2458625.297002667742",
        "mean_anomaly": "108.2264123017675",
        "mean_motion": ".2884476218774135",
        "equinox": "J2000",
        "orbit_class": {
            "orbit_class_type": "APO",
            "orbit_class_description": "Near-Earth asteroid orbits which cross the Earth’s orbit similar to that of 1862 Apollo",
            "orbit_class_range": "a (semi-major axis) > 1.0 AU; q (perihelion) < 1.017 AU"
        }
    },
    "is_sentry_object": false
}